{
  "type": "FeatureCollection",
  "features": [
    {
      "type": "Feature",
      "properties": {
        "norad_id": 38833,
        "name": "GPS BIIF-3  (PRN 24)",
        "group": "gps-ops",
        "lat": 37.20159888031721,
        "lon": -174.85634214570422,
        "alt_km": 19726.48543136533,
        "timestamp": "2025-12-17T21:39:45.947090+00:00",
        "meta_object_name": "GPS BIIF-3  (PRN 24)",
        "meta_object_id": "2012-053A",
        "meta_epoch": "2025-12-16T20:09:13.627584",
        "meta_mean_motion": 2.00565075,
        "meta_eccentricity": 0.01759464,
        "meta_inclination": 53.5585,
        "meta_ra_of_asc_node": 151.0706,
        "meta_arg_of_pericenter": 64.0575,
        "meta_mean_anomaly": 297.7402,
        "meta_ephemeris_type": 0,
        "meta_classification_type": "U",
        "meta_norad_cat_id": 38833,
        "meta_element_set_no": 999,
        "meta_rev_at_epoch": 9578,
        "meta_bstar": 0,
        "meta_mean_motion_dot": 7.2e-07,
        "meta_mean_motion_ddot": 0,
        "tle_line1": "1 38833U 12053A   25350.83974106  .00000072  00000+0  00000+0 0  9996",
        "tle_line2": "2 38833  53.5585 151.0706 0175946  64.0575 297.7402  2.00565075 95787"
      },
      "geometry": {
        "type": "Point",
        "coordinates": [
          -174.85634214570422,
          37.20159888031721
        ]
      }
    },
    {
      "type": "Feature",
      "properties": {
        "norad_id": 39166,
        "name": "GPS BIIF-4  (PRN 27)",
        "group": "gps-ops",
        "lat": 25.299044912843982,
        "lon": 76.76818915730729,
        "alt_km": 20236.92536889819,
        "timestamp": "2025-12-17T21:39:45.947100+00:00",
        "meta_object_name": "GPS BIIF-4  (PRN 27)",
        "meta_object_id": "2013-023A",
        "meta_epoch": "2025-12-15T04:59:33.811872",
        "meta_mean_motion": 2.00564736,
        "meta_eccentricity": 0.01378529,
        "meta_inclination": 54.65,
        "meta_ra_of_asc_node": 276.4679,
        "meta_arg_of_pericenter": 48.4851,
        "meta_mean_anomaly": 312.7012,
        "meta_ephemeris_type": 0,
        "meta_classification_type": "U",
        "meta_norad_cat_id": 39166,
        "meta_element_set_no": 999,
        "meta_rev_at_epoch": 9219,
        "meta_bstar": 0,
        "meta_mean_motion_dot": -6.8e-07,
        "meta_mean_motion_ddot": 0,
        "tle_line1": "1 39166U 13023A   25349.20803023 -.00000068  00000+0  00000+0 0  9998",
        "tle_line2": "2 39166  54.6500 276.4679 0137852  48.4851 312.7012  2.00564736 92194"
      },
      "geometry": {
        "type": "Point",
        "coordinates": [
          76.76818915730729,
          25.299044912843982
        ]
      }
    },
    {
      "type": "Feature",
      "properties": {
        "norad_id": 39533,
        "name": "GPS BIIF-5  (PRN 30)",
        "group": "gps-ops",
        "lat": 24.73092196927823,
        "lon": -43.14582640264,
        "alt_km": 20132.65432908594,
        "timestamp": "2025-12-17T21:39:45.947110+00:00",
        "meta_object_name": "GPS BIIF-5  (PRN 30)",
        "meta_object_id": "2014-008A",
        "meta_epoch": "2025-12-17T04:42:21.782016",
        "meta_mean_motion": 2.00574699,
        "meta_eccentricity": 0.00793343,
        "meta_inclination": 53.632,
        "meta_ra_of_asc_node": 156.7429,
        "meta_arg_of_pericenter": 226.5757,
        "meta_mean_anomaly": 132.7662,
        "meta_ephemeris_type": 0,
        "meta_classification_type": "U",
        "meta_norad_cat_id": 39533,
        "meta_element_set_no": 999,
        "meta_rev_at_epoch": 8603,
        "meta_bstar": 0,
        "meta_mean_motion_dot": 7.8e-07,
        "meta_mean_motion_ddot": 0,
        "tle_line1": "1 39533U 14008A   25351.19608544  .00000078  00000+0  00000+0 0  9992",
        "tle_line2": "2 39533  53.6320 156.7429 0079334 226.5757 132.7662  2.00574699 86034"
      },
      "geometry": {
        "type": "Point",
        "coordinates": [
          -43.14582640264,
          24.73092196927823
        ]
      }
    },
    {
      "type": "Feature",
      "properties": {
        "norad_id": 39741,
        "name": "GPS BIIF-6  (PRN 06)",
        "group": "gps-ops",
        "lat": -43.173007468361206,
        "lon": -59.708532689013595,
        "alt_km": 20086.114309251807,
        "timestamp": "2025-12-17T21:39:45.947120+00:00",
        "meta_object_name": "GPS BIIF-6  (PRN 06)",
        "meta_object_id": "2014-026A",
        "meta_epoch": "2025-12-16T11:34:54.885216",
        "meta_mean_motion": 2.00561186,
        "meta_eccentricity": 0.00392879,
        "meta_inclination": 56.5821,
        "meta_ra_of_asc_node": 338.6307,
        "meta_arg_of_pericenter": 318.9019,
        "meta_mean_anomaly": 40.8126,
        "meta_ephemeris_type": 0,
        "meta_classification_type": "U",
        "meta_norad_cat_id": 39741,
        "meta_element_set_no": 999,
        "meta_rev_at_epoch": 8487,
        "meta_bstar": 0,
        "meta_mean_motion_dot": -8.7e-07,
        "meta_mean_motion_ddot": 0,
        "tle_line1": "1 39741U 14026A   25350.48257969 -.00000087  00000+0  00000+0 0  9996",
        "tle_line2": "2 39741  56.5821 338.6307 0039287 318.9019  40.8126  2.00561186 84870"
      },
      "geometry": {
        "type": "Point",
        "coordinates": [
          -59.708532689013595,
          -43.173007468361206
        ]
      }
    },
    {
      "type": "Feature",
      "properties": {
        "norad_id": 40105,
        "name": "GPS BIIF-7  (PRN 09)",
        "group": "gps-ops",
        "lat": -47.08325523296087,
        "lon": -36.05761414236208,
        "alt_km": 20233.671109167306,
        "timestamp": "2025-12-17T21:39:45.947130+00:00",
        "meta_object_name": "GPS BIIF-7  (PRN 09)",
        "meta_object_id": "2014-045A",
        "meta_epoch": "2025-12-15T01:46:50.034144",
        "meta_mean_motion": 2.00572752,
        "meta_eccentricity": 0.00326343,
        "meta_inclination": 55.2306,
        "meta_ra_of_asc_node": 95.8057,
        "meta_arg_of_pericenter": 119.9544,
        "meta_mean_anomaly": 240.3532,
        "meta_ephemeris_type": 0,
        "meta_classification_type": "U",
        "meta_norad_cat_id": 40105,
        "meta_element_set_no": 999,
        "meta_rev_at_epoch": 8238,
        "meta_bstar": 0,
        "meta_mean_motion_dot": -3.6e-07,
        "meta_mean_motion_ddot": 0,
        "tle_line1": "1 40105U 14045A   25349.07419021 -.00000036  00000+0  00000+0 0  9999",
        "tle_line2": "2 40105  55.2306  95.8057 0032634 119.9544 240.3532  2.00572752 82388"
      },
      "geometry": {
        "type": "Point",
        "coordinates": [
          -36.05761414236208,
          -47.08325523296087
        ]
      }
    },
    {
      "type": "Feature",
      "properties": {
        "norad_id": 40294,
        "name": "GPS BIIF-8  (PRN 03)",
        "group": "gps-ops",
        "lat": -24.489730267631323,
        "lon": 20.669277246616556,
        "alt_km": 20208.80777483309,
        "timestamp": "2025-12-17T21:39:45.947140+00:00",
        "meta_object_name": "GPS BIIF-8  (PRN 03)",
        "meta_object_id": "2014-068A",
        "meta_epoch": "2025-12-16T22:42:57.008160",
        "meta_mean_motion": 2.00565217,
        "meta_eccentricity": 0.00607888,
        "meta_inclination": 56.8609,
        "meta_ra_of_asc_node": 37.9832,
        "meta_arg_of_pericenter": 69.0803,
        "meta_mean_anomaly": 291.6294,
        "meta_ephemeris_type": 0,
        "meta_classification_type": "U",
        "meta_norad_cat_id": 40294,
        "meta_element_set_no": 999,
        "meta_rev_at_epoch": 8155,
        "meta_bstar": 0,
        "meta_mean_motion_dot": -7.8e-07,
        "meta_mean_motion_ddot": 0,
        "tle_line1": "1 40294U 14068A   25350.94649315 -.00000078  00000+0  00000+0 0  9998",
        "tle_line2": "2 40294  56.8609  37.9832 0060788  69.0803 291.6294  2.00565217 81552"
      },
      "geometry": {
        "type": "Point",
        "coordinates": [
          20.669277246616556,
          -24.489730267631323
        ]
      }
    },
    {
      "type": "Feature",
      "properties": {
        "norad_id": 40534,
        "name": "GPS BIIF-9  (PRN 26)",
        "group": "gps-ops",
        "lat": -42.14560398883785,
        "lon": 74.3274489350161,
        "alt_km": 20457.754514495224,
        "timestamp": "2025-12-17T21:39:45.947150+00:00",
        "meta_object_name": "GPS BIIF-9  (PRN 26)",
        "meta_object_id": "2015-013A",
        "meta_epoch": "2025-12-17T13:48:02.835648",
        "meta_mean_motion": 2.00562371,
        "meta_eccentricity": 0.01072439,
        "meta_inclination": 53.197,
        "meta_ra_of_asc_node": 211.6899,
        "meta_arg_of_pericenter": 38.596,
        "meta_mean_anomaly": 322.2597,
        "meta_ephemeris_type": 0,
        "meta_classification_type": "U",
        "meta_norad_cat_id": 40534,
        "meta_element_set_no": 999,
        "meta_rev_at_epoch": 7818,
        "meta_bstar": 0,
        "meta_mean_motion_dot": 8.5e-07,
        "meta_mean_motion_ddot": 0,
        "tle_line1": "1 40534U 15013A   25351.57503282  .00000085  00000+0  00000+0 0  9995",
        "tle_line2": "2 40534  53.1970 211.6899 0107243  38.5960 322.2597  2.00562371 78187"
      },
      "geometry": {
        "type": "Point",
        "coordinates": [
          74.3274489350161,
          -42.14560398883785
        ]
      }
    }
  ]
}